{"type": "FeatureCollection", "features": [ {"type": "Feature", "properties": {"norad_id": 66635, "name": "STARLINK-35955", "group": "last-30-days", "lat": -1.0018592729364035, "lon": 138.0202763082639, "alt_km": 447.85780543916553, "timestamp": "2025-12-22T22:44:19.649393+00:00", "meta": {"OBJECT_NAME": "STARLINK-35955", "OBJECT_ID": "2025-271U", "EPOCH": "2025-12-22T10:16:53.044608", "MEAN_MOTION": 15.3968141, "ECCENTRICITY": 8.521e-05, "INCLINATION": 53.1613, "RA_OF_ASC_NODE": 141.2182, "ARG_OF_PERICENTER": 84.7276, "MEAN_ANOMALY": 275.3826, "EPHEMERIS_TYPE": 0, "CLASSIFICATION_TYPE": "U", "NORAD_CAT_ID": 66635, "ELEMENT_SET_NO": 999, "REV_AT_EPOCH": 570, "BSTAR": 0.001628569, "MEAN_MOTION_DOT": 0.00065435, "MEAN_MOTION_DDOT": 0}, "tle": {"line1": "1 66635U 25271U   25356.42839172  .00065435  00000+0  16286-2 0  9997", "line2": "2 66635  53.1613 141.2182 0000852  84.7276 275.3826 15.39681410  5708"}}, "geometry": {"type": "Point", "coordinates": [138.0202763082639, -1.0018592729364035]}}, {"type": "Feature", "properties": {"norad_id": 66636, "name": "STARLINK-35968", "group": "last-30-days", "lat": -21.32892052793879, "lon": 121.8011704361155, "alt_km": 450.2615691863848, "timestamp": "2025-12-22T22:44:19.649403+00:00", "meta": {"OBJECT_NAME": "STARLINK-35968", "OBJECT_ID": "2025-271V", "EPOCH": "2025-12-22T10:23:34.339776", "MEAN_MOTION": 15.3966493, "ECCENTRICITY": 8.53e-05, "INCLINATION": 53.161, "RA_OF_ASC_NODE": 141.2473, "ARG_OF_PERICENTER": 76.7542, "MEAN_ANOMALY": 283.3558, "EPHEMERIS_TYPE": 0, "CLASSIFICATION_TYPE": "U", "NORAD_CAT_ID": 66636, "ELEMENT_SET_NO": 999, "REV_AT_EPOCH": 570, "BSTAR": 0.0015476689, "MEAN_MOTION_DOT": 0.00062103, "MEAN_MOTION_DDOT": 0}, "tle": {"line1": "1 66636U 25271V   25356.43303634  .00062103  00000+0  15477-2 0  9998", "line2": "2 66636  53.1610 141.2473 0000853  76.7542 283.3558 15.39664930  5706"}}, "geometry": {"type": "Point", "coordinates": [121.8011704361155, -21.32892052793879]}}, {"type": "Feature", "properties": {"norad_id": 66637, "name": "STARLINK-35953", "group": "last-30-days", "lat": 19.31669691121426, "lon": 153.95550577093692, "alt_km": 444.79659246883875, "timestamp": "2025-12-22T22:44:19.649413+00:00", "meta": {"OBJECT_NAME": "STARLINK-35953", "OBJECT_ID": "2025-271W", "EPOCH": "2025-12-22T13:17:09.229920", "MEAN_MOTION": 15.39665657, "ECCENTRICITY": 6.346e-05, "INCLINATION": 53.1615, "RA_OF_ASC_NODE": 140.5771, "ARG_OF_PERICENTER": 77.8796, "MEAN_ANOMALY": 282.228, "EPHEMERIS_TYPE": 0, "CLASSIFICATION_TYPE": "U", "NORAD_CAT_ID": 66637, "ELEMENT_SET_NO": 999, "REV_AT_EPOCH": 572, "BSTAR": 0.0013698347, "MEAN_MOTION_DOT": 0.0005487, "MEAN_MOTION_DDOT": 0}, "tle": {"line1": "1 66637U 25271W   25356.55357905  .00054870  00000+0  13698-2 0  9997", "line2": "2 66637  53.1615 140.5771 0000634  77.8796 282.2280 15.39665657  5724"}}, "geometry": {"type": "Point", "coordinates": [153.95550577093692, 19.31669691121426]}}, {"type": "Feature", "properties": {"norad_id": 66638, "name": "STARLINK-35972", "group": "last-30-days", "lat": 50.885103217333764, "lon": -154.16044240825155, "alt_km": 439.7476370326549, "timestamp": "2025-12-22T22:44:19.649425+00:00", "meta": {"OBJECT_NAME": "STARLINK-35972", "OBJECT_ID": "2025-271X", "EPOCH": "2025-12-22T14:00:01.999872", "MEAN_MOTION": 15.39600906, "ECCENTRICITY": 0.00010654, "INCLINATION": 53.1608, "RA_OF_ASC_NODE": 140.334, "ARG_OF_PERICENTER": 95.5446, "MEAN_ANOMALY": 121.1917, "EPHEMERIS_TYPE": 0, "CLASSIFICATION_TYPE": "U", "NORAD_CAT_ID": 66638, "ELEMENT_SET_NO": 999, "REV_AT_EPOCH": 582, "BSTAR": 0.00026540974, "MEAN_MOTION_DOT": 0.00010224, "MEAN_MOTION_DDOT": 0}, "tle": {"line1": "1 66638U 25271X   25356.58335648  .00010224  00000+0  26541-3 0  9998", "line2": "2 66638  53.1608 140.3340 0001065  95.5446 121.1917 15.39600906  5820"}}, "geometry": {"type": "Point", "coordinates": [-154.16044240825155, 50.885103217333764]}}, {"type": "Feature", "properties": {"norad_id": 66639, "name": "STARLINK-35908", "group": "last-30-days", "lat": 51.58569007017672, "lon": -112.41014595459086, "alt_km": 439.40464660499583, "timestamp": "2025-12-22T22:44:19.649436+00:00", "meta": {"OBJECT_NAME": "STARLINK-35908", "OBJECT_ID": "2025-271Y", "EPOCH": "2025-12-22T14:00:01.999872", "MEAN_MOTION": 15.39603241, "ECCENTRICITY": 0.0001433, "INCLINATION": 53.1611, "RA_OF_ASC_NODE": 140.2821, "ARG_OF_PERICENTER": 82.246, "MEAN_ANOMALY": 160.2616, "EPHEMERIS_TYPE": 0, "CLASSIFICATION_TYPE": "U", "NORAD_CAT_ID": 66639, "ELEMENT_SET_NO": 999, "REV_AT_EPOCH": 582, "BSTAR": 0.00016518299, "MEAN_MOTION_DOT": 6.209e-05, "MEAN_MOTION_DDOT": 0}, "tle": {"line1": "1 66639U 25271Y   25356.58335648  .00006209  00000+0  16518-3 0  9990", "line2": "2 66639  53.1611 140.2821 0001433  82.2460 160.2616 15.39603241  5821"}}, "geometry": {"type": "Point", "coordinates": [-112.41014595459086, 51.58569007017672]}}, {"type": "Feature", "properties": {"norad_id": 66640, "name": "STARLINK-35921", "group": "last-30-days", "lat": 37.854695013981754, "lon": 174.30814706824296, "alt_km": 441.7304936159371, "timestamp": "2025-12-22T22:44:19.649446+00:00", "meta": {"OBJECT_NAME": "STARLINK-35921", "OBJECT_ID": "2025-271Z", "EPOCH": "2025-12-22T14:00:01.999872", "MEAN_MOTION": 15.39602947, "ECCENTRICITY": 9.862e-05, "INCLINATION": 53.1601, "RA_OF_ASC_NODE": 140.3846, "ARG_OF_PERICENTER": 68.0117, "MEAN_ANOMALY": 122.9808, "EPHEMERIS_TYPE": 0, "CLASSIFICATION_TYPE": "U", "NORAD_CAT_ID": 66640, "ELEMENT_SET_NO": 999, "REV_AT_EPOCH": 582, "BSTAR": 0.00019164076, "MEAN_MOTION_DOT": 7.269e-05, "MEAN_MOTION_DDOT": 0}, "tle": {"line1": "1 66640U 25271Z   25356.58335648  .00007269  00000+0  19164-3 0  9999", "line2": "2 66640  53.1601 140.3846 0000986  68.0117 122.9808 15.39602947  5823"}}, "geometry": {"type": "Point", "coordinates": [174.30814706824296, 37.854695013981754]}}, {"type": "Feature", "properties": {"norad_id": 66641, "name": "STARLINK-35923", "group": "last-30-days", "lat": -1.4660358619675802, "lon": -40.494895139796995, "alt_km": 431.0319004435951, "timestamp": "2025-12-22T22:44:19.649456+00:00", "meta": {"OBJECT_NAME": "STARLINK-35923", "OBJECT_ID": "2025-271AA", "EPOCH": "2025-12-22T14:00:01.999872", "MEAN_MOTION": 15.45536244, "ECCENTRICITY": 0.00012023, "INCLINATION": 53.1609, "RA_OF_ASC_NODE": 140.1372, "ARG_OF_PERICENTER": 78.9883, "MEAN_ANOMALY": 235.7855, "EPHEMERIS_TYPE": 0, "CLASSIFICATION_TYPE": "U", "NORAD_CAT_ID": 66641, "ELEMENT_SET_NO": 999, "REV_AT_EPOCH": 582, "BSTAR": 0.00028605306, "MEAN_MOTION_DOT": 0.00013552, "MEAN_MOTION_DDOT": 0}, "tle": {"line1": "1 66641U 25271AA  25356.58335648  .00013552  00000+0  28605-3 0  9992", "line2": "2 66641  53.1609 140.1372 0001202  78.9883 235.7855 15.45536244  5824"}}, "geometry": {"type": "Point", "coordinates": [-40.494895139796995, -1.4660358619675802]}}, {"type": "Feature", "properties": {"norad_id": 66642, "name": "STARLINK-35926", "group": "last-30-days", "lat": 0.05216758606813812, "lon": -41.629763607114924, "alt_km": 431.0322226933231, "timestamp": "2025-12-22T22:44:19.649467+00:00", "meta": {"OBJECT_NAME": "STARLINK-35926", "OBJECT_ID": "2025-271AB", "EPOCH": "2025-12-22T11:06:01.384992", "MEAN_MOTION": 15.45553076, "ECCENTRICITY": 0.00012788, "INCLINATION": 53.1602, "RA_OF_ASC_NODE": 140.7156, "ARG_OF_PERICENTER": 59.4816, "MEAN_ANOMALY": 300.6318, "EPHEMERIS_TYPE": 0, "CLASSIFICATION_TYPE": "U", "NORAD_CAT_ID": 66642, "ELEMENT_SET_NO": 999, "REV_AT_EPOCH": 567, "BSTAR": 0.00028600213, "MEAN_MOTION_DOT": 0.00013557, "MEAN_MOTION_DDOT": 0}, "tle": {"line1": "1 66642U 25271AB  25356.46251603  .00013557  00000+0  28600-3 0  9998", "line2": "2 66642  53.1602 140.7156 0001278  59.4816 300.6318 15.45553076  5678"}}, "geometry": {"type": "Point", "coordinates": [-41.629763607114924, 0.05216758606813812]}}, {"type": "Feature", "properties": {"norad_id": 66643, "name": "STARLINK-35918", "group": "last-30-days", "lat": 39.41613717380718, "lon": -79.52061627790128, "alt_km": 441.4688566903851, "timestamp": "2025-12-22T22:44:19.649477+00:00", "meta": {"OBJECT_NAME": "STARLINK-35918", "OBJECT_ID": "2025-271AC", "EPOCH": "2025-12-22T14:00:01.999872", "MEAN_MOTION": 15.39608075, "ECCENTRICITY": 0.00013139, "INCLINATION": 53.161, "RA_OF_ASC_NODE": 140.2313, "ARG_OF_PERICENTER": 82.2411, "MEAN_ANOMALY": 186.0121, "EPHEMERIS_TYPE": 0, "CLASSIFICATION_TYPE": "U", "NORAD_CAT_ID": 66643, "ELEMENT_SET_NO": 999, "REV_AT_EPOCH": 582, "BSTAR": 0.00012371705, "MEAN_MOTION_DOT": 4.55e-05, "MEAN_MOTION_DDOT": 0}, "tle": {"line1": "1 66643U 25271AC  25356.58335648  .00004550  00000+0  12372-3 0  9996", "line2": "2 66643  53.1610 140.2313 0001313  82.2411 186.0121 15.39608075  5821"}}, "geometry": {"type": "Point", "coordinates": [-79.52061627790128, 39.41613717380718]}}, {"type": "Feature", "properties": {"norad_id": 66644, "name": "STARLINK-35938", "group": "last-30-days", "lat": 1.5543896429425705, "lon": -42.73838774489672, "alt_km": 434.02257312170514, "timestamp": "2025-12-22T22:44:19.649489+00:00", "meta": {"OBJECT_NAME": "STARLINK-35938", "OBJECT_ID": "2025-271AD", "EPOCH": "2025-12-22T11:06:32.257440", "MEAN_MOTION": 15.45555804, "ECCENTRICITY": 0.00063275, "INCLINATION": 53.1585, "RA_OF_ASC_NODE": 140.7322, "ARG_OF_PERICENTER": 22.5469, "MEAN_ANOMALY": 337.5815, "EPHEMERIS_TYPE": 0, "CLASSIFICATION_TYPE": "U", "NORAD_CAT_ID": 66644, "ELEMENT_SET_NO": 999, "REV_AT_EPOCH": 571, "BSTAR": 0.0020508604, "MEAN_MOTION_DOT": 0.00101067, "MEAN_MOTION_DDOT": 0}, "tle": {"line1": "1 66644U 25271AD  25356.46287335  .00101067  00000+0  20509-2 0  9994", "line2": "2 66644  53.1585 140.7322 0006327  22.5469 337.5815 15.45555804  5717"}}, "geometry": {"type": "Point", "coordinates": [-42.73838774489672, 1.5543896429425705]}}]}